NORAD_CAT_ID,OBJECT_NAME,OBJECT_TYPE,EPOCH,MEAN_MOTION,ECCENTRICITY,INCLINATION,RA_OF_ASC_NODE,ARG_OF_PERICENTER,MEAN_ANOMALY,BSTAR,MEAN_MOTION_DOT,MEAN_MOTION_DDOT,TLE_LINE0,TLE_LINE1,TLE_LINE2,SEMIMAJOR_AXIS,PERIOD,APOGEE,PERIGEE,DECAYED
56788.0,STARLINK-6336,PAYLOAD,2023-11-07 17:49:02,15.69919765,0.0002028,69.999,322.1334,282.4625,77.6344,2.2145e-05,2.451e-05,0.0,0 STARLINK-6336,1 56788U 23078X   23311.74239461  .00002451  00000-0  22145-4 0  9990,2 56788  69.9990 322.1334 0002028 282.4625  77.6344 15.69919765 25496,6737.264,91.724,360.495,357.762,0.0
56788.0,STARLINK-6336,PAYLOAD,2023-11-08 02:59:31,15.69949703,0.0003308,69.9996,321.0574,282.4948,77.5877,2.3978e-05,2.674e-05,0.0,0 STARLINK-6336,1 56788U 23078X   23312.12467491  .00002674  00000-0  23978-4 0  9991,2 56788  69.9996 321.0574 0003308 282.4948  77.5877 15.69949703 25558,6737.178,91.723,361.272,356.814,0.0
56788.0,STARLINK-6336,PAYLOAD,2023-11-08 09:06:33,15.69938218,0.0002816,70.0015,320.3485,257.6842,102.4039,-7.1716e-06,-1.075e-05,0.0,0 STARLINK-6336,1 56788U 23078X   23312.37955057 -.00001075  00000-0 -71716-5 0  9998,2 56788  70.0015 320.3485 0002816 257.6842 102.4039 15.69938218 25597,6737.211,91.723,360.973,357.179,0.0
56788.0,STARLINK-6336,PAYLOAD,2023-11-08 10:38:18,15.69937138,0.0002735,69.9998,320.1617,278.1833,81.9052,-3.2214e-05,-4.086e-05,0.0,0 STARLINK-6336,1 56788U 23078X   23312.44327286 -.00004086  00000-0 -32214-4 0  9997,2 56788  69.9998 320.1617 0002735 278.1833  81.9052 15.69937138 25346,6737.214,91.723,360.921,357.236,0.0
56788.0,STARLINK-6336,PAYLOAD,2023-11-08 18:17:04,15.69913486,0.0002373,70.0003,319.2683,311.3684,48.7307,6.2494e-05,7.304e-05,0.0,0 STARLINK-6336,1 56788U 23078X   23312.76186027  .00007304  00000-0  62494-4 0  9995,2 56788  70.0003 319.2683 0002373 311.3684  48.7307 15.69913486 25658,6737.282,91.725,360.745,357.548,0.0
56788.0,STARLINK-6336,PAYLOAD,2023-11-09 03:27:36,15.69915759,0.0002796,70.0003,318.1925,276.0329,84.0548,1.7221e-06,-5e-08,0.0,0 STARLINK-6336,1 56788U 23078X   23313.14416944 -.00000005  00000-0  17221-5 0  9993,2 56788  70.0003 318.1925 0002796 276.0329  84.0548 15.69915759 25719,6737.275,91.725,361.024,357.256,0.0
56788.0,STARLINK-6336,PAYLOAD,2023-11-09 08:03:04,15.69738547,0.0001234,69.9998,317.6554,292.0152,68.0912,-0.00020271,-0.00024321,0.0,0 STARLINK-6336,1 56788U 23078X   23313.33546592 -.00024321  00000-0 -20271-3 0  9992,2 56788  69.9998 317.6554 0001234 292.0152  68.0912 15.69738547 25747,6737.782,91.735,360.479,358.816,0.0
56788.0,STARLINK-6336,PAYLOAD,2023-11-09 11:06:34,15.69751926,0.0002044,70.0001,317.2975,288.785,71.3124,-0.00018165,-0.00021837,0.0,0 STARLINK-6336,1 56788U 23078X   23313.46289591 -.00021837  00000-0 -18165-3 0  9997,2 56788  70.0001 317.2975 0002044 288.7850  71.3124 15.69751926 25765,6737.744,91.734,360.986,358.232,0.0
56788.0,STARLINK-6336,PAYLOAD,2023-11-10 04:03:38,15.63032395,0.0023876,69.9943,315.3498,93.5667,266.8256,-0.0090287,-0.00765396,0.0,0 STARLINK-6336,1 56788U 23078X   23314.16919893 -.00765396  00000-0 -90287-2 0  9999,2 56788  69.9943 315.3498 0023876  93.5667 266.8256 15.63032395 25875,6757.04,92.129,395.039,362.772,0.0
56788.0,STARLINK-6336,PAYLOAD,2023-11-10 14:00:01,15.6731828,0.0003366,69.9995,314.1533,268.6728,296.4306,-0.0098097,-0.00961978,0.0,0 STARLINK-6336,1 56788U 23078X   23314.58334491 -.00961978  00000-0 -98097-2 0  9991,2 56788  69.9995 314.1533 0003366 268.6728 296.4306 15.67318280 25930,6744.717,91.877,368.852,364.311,0.0
56788.0,STARLINK-6336,PAYLOAD,2023-11-10 22:00:00,15.66610967,0.0003606,69.9996,313.2201,261.2389,23.6585,-0.00894,-0.00848695,0.0,0 STARLINK-6336,1 56788U 23078X   23314.91667824 -.00848695  00000-0 -89400-2 0  9995,2 56788  69.9996 313.2201 0003606 261.2389  23.6585 15.66610967  6048,6746.747,91.918,371.044,366.179,0.0
56788.0,STARLINK-6336,PAYLOAD,2023-11-11 04:00:00,15.66165116,0.0003464,69.9999,312.5208,263.3489,350.8628,-0.010008,-0.00938856,0.0,0 STARLINK-6336,1 56788U 23078X   23315.16667824 -.00938856  00000-0 -10008-1 0  9999,2 56788  69.9999 312.5208 0003464 263.3489 350.8628 15.66165116 26031,6748.027,91.944,372.229,367.554,0.0
56788.0,STARLINK-6336,PAYLOAD,2023-11-11 14:00:01,15.65359858,0.0003391,69.9995,311.3566,269.6665,172.437,-0.010571,-0.00958099,0.0,0 STARLINK-6336,1 56788U 23078X   23315.58334491 -.00958099  00000-0 -10571-1 0  9992,2 56788  69.9995 311.3566 0003391 269.6665 172.4370 15.65359858  6043,6750.341,91.992,374.495,369.917,0.0
56788.0,STARLINK-6336,PAYLOAD,2023-11-11 22:00:01,15.64656726,0.0003347,69.9997,310.4265,261.7589,257.8555,-0.0097181,-0.00852345,0.0,0 STARLINK-6336,1 56788U 23078X   23315.91668981 -.00852345  00000-0 -97181-2 0  9993,2 56788  69.9997 310.4265 0003347 261.7589 257.8555 15.64656726  6046,6752.363,92.033,376.488,371.968,0.0
56788.0,STARLINK-6336,PAYLOAD,2023-11-12 12:00:02,15.63546742,0.0003333,69.9991,308.8005,267.31,295.9274,-0.010859,-0.00919391,0.0,0 STARLINK-6336,1 56788U 23078X   23316.50002315 -.00919391  00000-0 -10859-1 0  9993,2 56788  69.9991 308.8005 0003333 267.3100 295.9274 15.63546742 26238,6755.559,92.098,379.675,375.172,0.0
56788.0,STARLINK-6336,PAYLOAD,2023-11-12 14:00:01,15.63401432,0.0003474,69.9992,308.5683,265.5787,46.4844,-0.011417,-0.00957342,0.0,0 STARLINK-6336,1 56788U 23078X   23316.58334491 -.00957342  00000-0 -11417-1 0  9993,2 56788  69.9992 308.5683 0003474 265.5787  46.4844 15.63401432  5993,6755.977,92.107,380.189,375.495,0.0
56788.0,STARLINK-6336,PAYLOAD,2023-11-12 22:00:00,15.62701822,0.0003529,69.9993,307.6407,260.9624,126.1986,-0.01053,-0.00867185,0.0,0 STARLINK-6336,1 56788U 23078X   23316.91667824 -.00867185  00000-0 -10530-1 0  9999,2 56788  69.9993 307.6407 0003529 260.9624 126.1986 15.62701822  6054,6757.993,92.148,382.243,377.473,0.0
56788.0,STARLINK-6336,PAYLOAD,2023-11-13 12:00:00,15.61584909,0.000334,69.9994,306.0193,268.1092,158.5705,-0.011615,-0.00911436,0.0,0 STARLINK-6336,1 56788U 23078X   23317.50001157 -.00911436  00000-0 -11615-1 0  9990,2 56788  69.9994 306.0193 0003340 268.1092 158.5705 15.61584909 26391,6761.215,92.214,385.339,380.822,0.0
56788.0,STARLINK-6336,PAYLOAD,2023-11-13 14:00:01,15.61438609,0.0003207,69.9994,305.788,264.9446,270.0391,-0.012192,-0.00947611,0.0,0 STARLINK-6336,1 56788U 23078X   23317.58334491 -.00947611  00000-0 -12192-1 0  9993,2 56788  69.9994 305.7880 0003207 264.9446 270.0391 15.61438609  6045,6761.638,92.223,385.671,381.334,0.0
56788.0,STARLINK-6336,PAYLOAD,2023-11-13 22:00:00,15.60748569,0.0003364,69.9996,304.8633,259.074,348.6566,-0.011417,-0.00871063,0.0,0 STARLINK-6336,1 56788U 23078X   23317.91667824 -.00871063  00000-0 -11417-1 0  9995,2 56788  69.9996 304.8633 0003364 259.0740 348.6566 15.60748569  5895,6763.631,92.263,387.771,383.22,0.0
56788.0,STARLINK-6336,PAYLOAD,2023-11-14 14:00:01,15.59480171,0.0003474,69.9993,303.0161,269.6584,121.2039,-0.013106,-0.0094502,0.0,0 STARLINK-6336,1 56788U 23078X   23318.58334491 -.00945020  00000-0 -13106-1 0  9992,2 56788  69.9993 303.0161 0003474 269.6584 121.2039 15.59480171 26561,6767.298,92.338,391.513,386.812,0.0
56788.0,STARLINK-6336,PAYLOAD,2023-11-14 22:00:00,15.58791838,0.0003369,69.9997,302.0939,263.691,197.5712,-0.012313,-0.00871599,0.0,0 STARLINK-6336,1 56788U 23078X   23318.91667824 -.00871599  00000-0 -12313-1 0  9996,2 56788  69.9997 302.0939 0003369 263.6910 197.5712 15.58791838  6057,6769.29,92.379,393.435,388.874,0.0
56788.0,STARLINK-6336,PAYLOAD,2023-11-15 06:00:02,15.58146948,0.0003247,69.9999,301.1725,267.5585,263.3852,-0.013001,-0.0089575,0.0,0 STARLINK-6336,1 56788U 23078X   23319.25002315 -.00895750  00000-0 -13001-1 0  9992,2 56788  69.9999 301.1725 0003247 267.5585 263.3852 15.58146948 26660,6771.157,92.417,395.221,390.824,0.0
56788.0,STARLINK-6336,PAYLOAD,2023-11-15 14:00:01,15.57531626,0.0003319,69.9997,300.2521,265.1843,334.578,-0.014377,-0.00961117,0.0,0 STARLINK-6336,1 56788U 23078X   23319.58335648 -.00961117  00000-0 -14377-1 0  9994,2 56788  69.9997 300.2521 0003319 265.1843 334.5780 15.57531626  5986,6772.94,92.454,397.053,392.558,0.0
56788.0,STARLINK-6336,PAYLOAD,2023-11-15 20:00:01,15.56978608,0.0003341,69.9997,299.5625,260.4019,300.4203,-0.012755,-0.00845558,0.0,0 STARLINK-6336,1 56788U 23078X   23319.83334491 -.00845558  00000-0 -12755-1 0  9995,2 56788  69.9997 299.5625 0003341 260.4019 300.4203 15.56978608 26753,6774.544,92.487,398.673,394.146,0.0
56788.0,STARLINK-6336,PAYLOAD,2023-11-15 22:00:00,15.56837131,0.0003489,70.0,299.3328,260.1271,47.6231,-0.013233,-0.00870365,0.0,0 STARLINK-6336,1 56788U 23078X   23319.91667824 -.00870365  00000-0 -13233-1 0  9999,2 56788  70.0000 299.3328 0003489 260.1271  47.6231 15.56837131  6045,6774.955,92.495,399.183,394.456,0.0
56788.0,STARLINK-6336,PAYLOAD,2023-11-16 06:00:00,15.56191791,0.0003438,69.9998,298.4142,266.9855,108.0371,-0.014012,-0.00897098,0.0,0 STARLINK-6336,1 56788U 23078X   23320.25001157 -.00897098  00000-0 -14012-1 0  9997,2 56788  69.9998 298.4142 0003438 266.9855 108.0371 15.56191791 26828,6776.827,92.534,401.022,396.363,0.0
56788.0,STARLINK-6336,PAYLOAD,2023-11-16 14:00:01,15.55566896,0.000333,69.9998,297.4965,267.4195,174.0774,-0.015254,-0.00948872,0.0,0 STARLINK-6336,1 56788U 23078X   23320.58334491 -.00948872  00000-0 -15254-1 0  9999,2 56788  69.9998 297.4965 0003330 267.4195 174.0774 15.55566896  5989,6778.642,92.571,402.765,398.25,0.0
56788.0,STARLINK-6336,PAYLOAD,2023-11-16 22:00:01,15.54891639,0.0003326,70.0003,296.5798,261.1201,246.1408,-0.014536,-0.00887756,0.0,0 STARLINK-6336,1 56788U 23078X   23320.91668981 -.00887756  00000-0 -14536-1 0  9995,2 56788  70.0003 296.5798 0003326 261.1201 246.1408 15.54891639 26924,6780.605,92.611,404.725,400.214,0.0
56788.0,STARLINK-6336,PAYLOAD,2023-11-17 14:00:01,15.5361285,0.0003455,69.9998,294.7488,263.2369,13.0153,-0.01651,-0.00968845,0.0,0 STARLINK-6336,1 56788U 23078X   23321.58334491 -.00968845  00000-0 -16510-1 0  9998,2 56788  69.9998 294.7488 0003455 263.2369  13.0153 15.53612850 27037,6784.325,92.687,408.534,403.846,0.0
